{
"type": "FeatureCollection",
"name": "points",
"crs": { "type": "name", "properties": { "name": "urn:ogc:def:crs:OGC:1.3:CRS84" } },
"features": [
{ "type": "Feature", "properties": { "organisation": "leuven-city", "id": "kotmadam", "description": "De kotmadam is een iconisch standbeeld", "title": "De Kotmadam", "to_publish": true, "poi_type": "munument", "identify_feature": true, "where_to_show": "detail" }, "geometry": { "type": "Point", "coordinates": [ 4.699702885891087, 50.878454655367911 ] } },
{ "type": "Feature", "properties": { "organisation": "leuven-city", "id": "oude-markt", "description": "De langste toog van de wereld. Zuiwpeee", "title": "De Oude Markt", "to_publish": true, "poi_type": "default", "identify_feature": true, "where_to_show": "always" }, "geometry": { "type": "Point", "coordinates": [ 4.699420253108343, 50.878076183822976 ] } },
{ "type": "Feature", "properties": { "organisation": "leuven-city", "id": "Sint-Jan-de-Doperkerk", "description": "De kerk van het begijnhof", "title": "Sint-Jan-de-Doperkerk", "to_publish": true, "poi_type": "religious_christian", "identify_feature": true, "where_to_show": "always" }, "geometry": { "type": "Point", "coordinates": [ 4.697481196878588, 50.871378458353796 ] } },
{ "type": "Feature", "properties": { "organisation": "leuven-city", "id": "dijlepark", "description": "Het Dijlepark, prachtig verborgen hoekje in Leuven.", "title": "Dijlepark", "to_publish": true, "poi_type": "park", "identify_feature": true, "where_to_show": "always" }, "geometry": { "type": "Point", "coordinates": [ 4.69689395554598, 50.873784804853933 ] } },
{ "type": "Feature", "properties": { "organisation": "leuven-city", "id": "universiteitsbib", "description": "Tijdens WOI ging de universiteits-\nbibliotheek in vlammen op. In 1921\nverrees een nieuwe bib in Vlaamse\nrenaissancestijl, met Amerikaanse\ncenten. Beklim de toren en leer\nonderweg meer over de turbulente\ngeschiedenis van de bib en de stad.\nHet uitzicht boven is verbluffend.", "title": "Universiteitsbibliotheek", "to_publish": true, "poi_type": "munument", "identify_feature": true, "where_to_show": "always" }, "geometry": { "type": "Point", "coordinates": [ 4.707409360115082, 50.878023686157078 ] } }
]
}
