{
"type": "FeatureCollection",
"name": "segments",
"crs": { "type": "name", "properties": { "name": "urn:ogc:def:crs:OGC:1.3:CRS84" } },
"features": [
{ "type": "Feature", "properties": { "organisation": "leuven-city", "line_class": "road", "title": "Oude en Grote Markt", "description": "Een toerke over de langste toog van de wereld. ", "to_publish": true, "surface_type": "asphalt", "id": "oude_grote_markt_loop", "show_elevation": false, "identify_feature": true }, "geometry": { "type": "LineString", "coordinates": [ [ 4.702667172701, 50.878632292818843 ], [ 4.702198356335677, 50.878725079391145 ], [ 4.701800350775532, 50.878832516474866 ], [ 4.701666054420881, 50.878878909761021 ], [ 4.701531758066232, 50.8790425071385 ], [ 4.700901786075328, 50.879105992687968 ], [ 4.700879810308203, 50.879057157649918 ], [ 4.700838300525857, 50.878761705669689 ], [ 4.700821208262538, 50.87846625368946 ], [ 4.700779698480192, 50.878231845506797 ], [ 4.700711329426915, 50.878197660980156 ], [ 4.700264488828716, 50.878273355289139 ], [ 4.699815206478614, 50.878414976899499 ], [ 4.699571031288341, 50.878112810101534 ], [ 4.699265812300501, 50.877692828774265 ], [ 4.699009428350714, 50.877436444824482 ], [ 4.69845026716499, 50.877592716946253 ], [ 4.698682233595749, 50.877956537979763 ], [ 4.699075355652088, 50.878435121352695 ], [ 4.699278021060015, 50.878707987127825 ], [ 4.699536846761704, 50.878988788596644 ], [ 4.699658934356839, 50.879139566776637 ], [ 4.699746837425338, 50.879454552772089 ], [ 4.700296231603452, 50.879349557440271 ], [ 4.700542848545627, 50.879217702837522 ], [ 4.701241189589807, 50.879134683272831 ] ] } },
{ "type": "Feature", "properties": { "organisation": "leuven-city", "line_class": "road", "title": "Richting Ladeuzeplein", "description": "Wandel verder naar het Ladeuzeplein", "to_publish": true, "surface_type": "asphalt", "id": "markt-naar-ladeuze", "show_elevation": false, "identify_feature": true }, "geometry": { "type": "LineString", "coordinates": [ [ 4.701241189589807, 50.879134683272831 ], [ 4.701717941648809, 50.879060209839807 ], [ 4.701912060925076, 50.879167646923527 ], [ 4.702312508237124, 50.879071197723363 ], [ 4.702839926648113, 50.878856323555922 ], [ 4.703226944324695, 50.878657320775851 ], [ 4.70368843543431, 50.878894170710417 ], [ 4.704355033703755, 50.879231132472981 ], [ 4.705511203229697, 50.87857185945925 ], [ 4.706053272152102, 50.878635345008718 ], [ 4.706336515372818, 50.878581626466861 ] ] } },
{ "type": "Feature", "properties": { "organisation": "leuven-city", "line_class": "road", "title": "Naar het Hogeschoolplein", "description": "Langs het Hooverplein wandelen we verder richting tiensestraat, waar we een steegje induiken.", "to_publish": true, "surface_type": "cobblestones", "id": "ladeuze-naar-hogeschool", "show_elevation": false, "identify_feature": true }, "geometry": { "type": "LineString", "coordinates": [ [ 4.706336515372818, 50.878581626466861 ], [ 4.70680411086219, 50.878304487625897 ], [ 4.706603887206166, 50.877852763523897 ], [ 4.706127745585134, 50.877379063654764 ], [ 4.705619861189366, 50.876878504514714 ], [ 4.704772573279119, 50.877147097224018 ], [ 4.704428286260836, 50.877298485841976 ], [ 4.704149926543924, 50.877474291978977 ], [ 4.703837382300375, 50.877220349781091 ], [ 4.703478444770674, 50.877300927593886 ], [ 4.703275779362747, 50.877186165254457 ], [ 4.702907074825435, 50.877361971391451 ], [ 4.702704409417509, 50.877361971391451 ], [ 4.702296636849753, 50.87754998628796 ], [ 4.701959675087176, 50.877281393578656 ] ] } },
{ "type": "Feature", "properties": { "organisation": "leuven-city", "line_class": "road", "title": "Rondje door het stadspark", "description": "Langs de naamsestraat duiken we opnieuw een zijstraatje in, waar we aan onze linkerkant achtereenvolgens het Instituut voor Dierkunde en het Kolenmuseum passeren. In het stadspark krijgen we een mooi zicht op de resstanten van de oude stadswallen.", "to_publish": true, "surface_type": "asphalt", "id": "rondje-stadspark", "show_elevation": false, "identify_feature": true }, "geometry": { "type": "LineString", "coordinates": [ [ 4.701959675087176, 50.877281393578656 ], [ 4.701517717992783, 50.876920014297049 ], [ 4.701131921192151, 50.876568402023054 ], [ 4.700965882062766, 50.876465848443139 ], [ 4.700418929636554, 50.876309576321368 ], [ 4.700328584816154, 50.875752856887544 ], [ 4.701437140179991, 50.875852968715556 ], [ 4.702892424314017, 50.876043425363967 ], [ 4.702911958329239, 50.875928663024538 ], [ 4.702926608840656, 50.875867619226973 ], [ 4.702872890298796, 50.875838318204138 ], [ 4.702877773802601, 50.875779716158476 ], [ 4.703131716000485, 50.875479380674435 ], [ 4.702821613508839, 50.87530357453744 ], [ 4.702511511017192, 50.875208346213235 ], [ 4.702421166196792, 50.875222996724652 ], [ 4.702352797143515, 50.875193695701817 ], [ 4.702081762682313, 50.875291365777919 ], [ 4.701954791583371, 50.875259623003181 ], [ 4.701778985446374, 50.875076491610479 ], [ 4.701463999450922, 50.875518448704874 ], [ 4.701454232443312, 50.875393919357833 ], [ 4.70131871521271, 50.875236426360104 ], [ 4.700508053581004, 50.875160732051121 ], [ 4.700278528902148, 50.875138756283995 ], [ 4.700205276345065, 50.875139977159947 ] ] } },
{ "type": "Feature", "properties": { "organisation": "leuven-city", "line_class": "road", "title": "Naamsestraat", "description": "wandelen langs de naamsestraat.", "to_publish": true, "surface_type": "asphalt", "id": "naamsestraat", "show_elevation": false, "identify_feature": true }, "geometry": { "type": "LineString", "coordinates": [ [ 4.700205276345065, 50.875139977159947 ], [ 4.70004778334734, 50.874594245609707 ], [ 4.69998979173965, 50.874301845819353 ], [ 4.699911655678763, 50.873982586758075 ], [ 4.699879912904027, 50.873550396671291 ], [ 4.699872587648319, 50.873199394835275 ], [ 4.699872587648319, 50.873094399503458 ], [ 4.699760267060793, 50.872665872044529 ], [ 4.699643062969463, 50.872245890717259 ], [ 4.699577746106065, 50.872004767716859 ], [ 4.699514260556594, 50.871472465802064 ], [ 4.699278021060005, 50.870214353134187 ], [ 4.698604097534852, 50.87021679488609 ] ] } },
{ "type": "Feature", "properties": { "organisation": "leuven-city", "line_class": "road", "title": "Begijnhof", "description": "Een toerke door het begijnhof", "to_publish": true, "surface_type": "cobblestones", "id": "doorheen-begijnhof", "show_elevation": false, "identify_feature": true }, "geometry": { "type": "LineString", "coordinates": [ [ 4.698604097534852, 50.87021679488609 ], [ 4.698413640886439, 50.870229003645598 ], [ 4.698474684684008, 50.870526897377736 ], [ 4.698406315630732, 50.870905368922656 ], [ 4.698026012771881, 50.871048211408969 ], [ 4.697995796092085, 50.871063167139376 ], [ 4.698015330107308, 50.871582039418705 ], [ 4.698049514633945, 50.871663838107445 ], [ 4.697649067321898, 50.871679709494813 ], [ 4.697187270993296, 50.871677267742911 ], [ 4.696929666167557, 50.871699243510037 ], [ 4.696356464908393, 50.871821025886184 ], [ 4.696231019904391, 50.87187566008501 ], [ 4.696165092603017, 50.872063674981518 ], [ 4.696161429975163, 50.872224220169123 ], [ 4.696183405742287, 50.872354853895921 ], [ 4.69623956603605, 50.872474194520166 ], [ 4.696517925752961, 50.872446114373282 ], [ 4.696659547363319, 50.872592619487449 ], [ 4.696682438787407, 50.872715622739548 ], [ 4.696687322291213, 50.872895091504397 ] ] } },
{ "type": "Feature", "properties": { "organisation": "leuven-city", "line_class": "road", "title": "Terug naar start", "description": "Langs de schapenstraat terug naar de Grote markt", "to_publish": true, "surface_type": "asphalt", "id": "begijnhof-naar-markt", "show_elevation": false, "identify_feature": true }, "geometry": { "type": "LineString", "coordinates": [ [ 4.696687322291213, 50.872895091504397 ], [ 4.696416287830011, 50.872895091504382 ], [ 4.696516399658023, 50.873261354289788 ], [ 4.69653105016944, 50.873331554656993 ], [ 4.696505411774461, 50.873470734515443 ], [ 4.696548142432759, 50.873511023421841 ], [ 4.696590873091056, 50.873709720982923 ], [ 4.696831080434488, 50.873676757332241 ], [ 4.697034966718365, 50.87362548054228 ], [ 4.697347510961914, 50.873717046238632 ], [ 4.697461968082354, 50.873818073723612 ], [ 4.697507140492555, 50.87388155927308 ], [ 4.697709500681493, 50.8739313099681 ], [ 4.69779618287404, 50.874011887780888 ], [ 4.697845017912095, 50.874121766616511 ], [ 4.697808391633553, 50.874357090456137 ], [ 4.697882559847598, 50.87445781272212 ], [ 4.698102317518845, 50.874501764256372 ], [ 4.698011667479455, 50.874865280070892 ], [ 4.69772109900303, 50.875271526543706 ], [ 4.697657918672547, 50.875582239473331 ], [ 4.697718962470116, 50.875899362001697 ], [ 4.697734833857484, 50.875978413719544 ], [ 4.698999661343097, 50.876234797669333 ], [ 4.699312205586646, 50.876312933730219 ], [ 4.700342624889597, 50.876317817234025 ], [ 4.700751618333304, 50.878069774224237 ], [ 4.701823547418602, 50.87781583202635 ], [ 4.702199577211622, 50.877649792896968 ], [ 4.702531655470393, 50.878138143277511 ], [ 4.702593004486949, 50.8782315402878 ], [ 4.702529518937478, 50.878287700581566 ], [ 4.702667172701, 50.878632292818843 ] ] } }
]
}
